[{"OBJECT_NAME":"STARLINK-32325","OBJECT_ID":"2024-187Q","EPOCH":"2026-03-09T23:07:32.792736","MEAN_MOTION":15.30182683,"ECCENTRICITY":0.00012693,"INCLINATION":53.1623,"RA_OF_ASC_NODE":63.8974,"ARG_OF_PERICENTER":106.8064,"MEAN_ANOMALY":253.3076,"EPHEMERIS_TYPE":0,"CLASSIFICATION_TYPE":"U","NORAD_CAT_ID":61588,"ELEMENT_SET_NO":999,"REV_AT_EPOCH":7912,"BSTAR":7.785353e-6,"MEAN_MOTION_DOT":-1.29e-6,"MEAN_MOTION_DDOT":0},{"OBJECT_NAME":"SCS-01 H","OBJECT_ID":"2025-100H","EPOCH":"2026-03-09T23:19:05.376864","MEAN_MOTION":15.31767757,"ECCENTRICITY":0.00071581,"INCLINATION":97.3749,"RA_OF_ASC_NODE":145.8085,"ARG_OF_PERICENTER":277.8492,"MEAN_ANOMALY":82.1937,"EPHEMERIS_TYPE":0,"CLASSIFICATION_TYPE":"U","NORAD_CAT_ID":63989,"ELEMENT_SET_NO":999,"REV_AT_EPOCH":4566,"BSTAR":0.0011436254,"MEAN_MOTION_DOT":0.00035149,"MEAN_MOTION_DDOT":0}]
